{
  "type": "FeatureCollection",
  "features": [
    {
      "type": "Feature",
      "properties": {
        "norad_id": 30250,
        "name": "FENGYUN 1C DEB",
        "group": "fengyun-1c-debris",
        "lat": 80.97384064808497,
        "lon": -97.49006839857228,
        "alt_km": 916.5229774110148,
        "timestamp": "2025-12-12T11:38:31.686932+00:00",
        "meta_object_name": "FENGYUN 1C DEB",
        "meta_object_id": "1999-025XK",
        "meta_epoch": "2025-12-11T23:31:23.994048",
        "meta_mean_motion": 14.01624587,
        "meta_eccentricity": 0.0068417,
        "meta_inclination": 98.7543,
        "meta_ra_of_asc_node": 337.9571,
        "meta_arg_of_pericenter": 225.5574,
        "meta_mean_anomaly": 196.3108,
        "meta_ephemeris_type": 0,
        "meta_classification_type": "U",
        "meta_norad_cat_id": 30250,
        "meta_element_set_no": 999,
        "meta_rev_at_epoch": 96481,
        "meta_bstar": 0.00058341,
        "meta_mean_motion_dot": 8.6e-06,
        "meta_mean_motion_ddot": 0,
        "tle_line1": "1 30250U 99025XK  25345.98013882  .00000860  00000+0  58341-3 0  9990",
        "tle_line2": "2 30250  98.7543 337.9571 0068417 225.5574 196.3108 14.01624587964813"
      },
      "geometry": {
        "type": "Point",
        "coordinates": [
          -97.49006839857228,
          80.97384064808497
        ]
      }
    },
    {
      "type": "Feature",
      "properties": {
        "norad_id": 30251,
        "name": "FENGYUN 1C DEB",
        "group": "fengyun-1c-debris",
        "lat": 50.65177261403342,
        "lon": 16.003560045864486,
        "alt_km": 823.623545024353,
        "timestamp": "2025-12-12T11:38:31.686942+00:00",
        "meta_object_name": "FENGYUN 1C DEB",
        "meta_object_id": "1999-025XL",
        "meta_epoch": "2025-12-12T01:33:42.098112",
        "meta_mean_motion": 14.29301193,
        "meta_eccentricity": 0.0051798,
        "meta_inclination": 99.0491,
        "meta_ra_of_asc_node": 184.3596,
        "meta_arg_of_pericenter": 332.2555,
        "meta_mean_anomaly": 155.9225,
        "meta_ephemeris_type": 0,
        "meta_classification_type": "U",
        "meta_norad_cat_id": 30251,
        "meta_element_set_no": 999,
        "meta_rev_at_epoch": 98132,
        "meta_bstar": 0.00069832,
        "meta_mean_motion_dot": 1.755e-05,
        "meta_mean_motion_ddot": 0,
        "tle_line1": "1 30251U 99025XL  25346.06507058  .00001755  00000+0  69832-3 0  9995",
        "tle_line2": "2 30251  99.0491 184.3596 0051798 332.2555 155.9225 14.29301193981321"
      },
      "geometry": {
        "type": "Point",
        "coordinates": [
          16.003560045864486,
          50.65177261403342
        ]
      }
    },
    {
      "type": "Feature",
      "properties": {
        "norad_id": 30252,
        "name": "FENGYUN 1C DEB",
        "group": "fengyun-1c-debris",
        "lat": 11.5058050876968,
        "lon": -0.264959201091793,
        "alt_km": 891.7268362031473,
        "timestamp": "2025-12-12T11:38:31.686952+00:00",
        "meta_object_name": "FENGYUN 1C DEB",
        "meta_object_id": "1999-025XM",
        "meta_epoch": "2025-12-11T12:28:10.606080",
        "meta_mean_motion": 14.09707802,
        "meta_eccentricity": 0.00659007,
        "meta_inclination": 98.7434,
        "meta_ra_of_asc_node": 0.5924,
        "meta_arg_of_pericenter": 245.1118,
        "meta_mean_anomaly": 268.8125,
        "meta_ephemeris_type": 0,
        "meta_classification_type": "U",
        "meta_norad_cat_id": 30252,
        "meta_element_set_no": 999,
        "meta_rev_at_epoch": 96948,
        "meta_bstar": 0.00071696676,
        "meta_mean_motion_dot": 1.24e-05,
        "meta_mean_motion_ddot": 0,
        "tle_line1": "1 30252U 99025XM  25345.51956720  .00001240  00000+0  71697-3 0  9990",
        "tle_line2": "2 30252  98.7434   0.5924 0065900 245.1118 268.8125 14.09707802969487"
      },
      "geometry": {
        "type": "Point",
        "coordinates": [
          -0.264959201091793,
          11.5058050876968
        ]
      }
    },
    {
      "type": "Feature",
      "properties": {
        "norad_id": 30253,
        "name": "FENGYUN 1C DEB",
        "group": "fengyun-1c-debris",
        "lat": -18.565684988367472,
        "lon": -108.39769349774606,
        "alt_km": 1142.5217666495982,
        "timestamp": "2025-12-12T11:38:31.686962+00:00",
        "meta_object_name": "FENGYUN 1C DEB",
        "meta_object_id": "1999-025XN",
        "meta_epoch": "2025-12-11T05:12:58.892256",
        "meta_mean_motion": 13.73172236,
        "meta_eccentricity": 0.02215703,
        "meta_inclination": 98.7517,
        "meta_ra_of_asc_node": 73.4076,
        "meta_arg_of_pericenter": 45.3048,
        "meta_mean_anomaly": 8.7457,
        "meta_ephemeris_type": 0,
        "meta_classification_type": "U",
        "meta_norad_cat_id": 30253,
        "meta_element_set_no": 999,
        "meta_rev_at_epoch": 93993,
        "meta_bstar": 0.0023097048,
        "meta_mean_motion_dot": 2.513e-05,
        "meta_mean_motion_ddot": 0,
        "tle_line1": "1 30253U 99025XN  25345.21734829  .00002513  00000+0  23097-2 0  9996",
        "tle_line2": "2 30253  98.7517  73.4076 0221570  45.3048   8.7457 13.73172236939939"
      },
      "geometry": {
        "type": "Point",
        "coordinates": [
          -108.39769349774606,
          -18.565684988367472
        ]
      }
    },
    {
      "type": "Feature",
      "properties": {
        "norad_id": 30257,
        "name": "FENGYUN 1C DEB",
        "group": "fengyun-1c-debris",
        "lat": 9.901270690557753,
        "lon": -16.483738688655755,
        "alt_km": 861.3892538646778,
        "timestamp": "2025-12-12T11:38:31.686972+00:00",
        "meta_object_name": "FENGYUN 1C DEB",
        "meta_object_id": "1999-025XS",
        "meta_epoch": "2025-12-10T17:50:14.803296",
        "meta_mean_motion": 14.09722287,
        "meta_eccentricity": 0.00596839,
        "meta_inclination": 98.7496,
        "meta_ra_of_asc_node": 343.3636,
        "meta_arg_of_pericenter": 104.8014,
        "meta_mean_anomaly": 70.9872,
        "meta_ephemeris_type": 0,
        "meta_classification_type": "U",
        "meta_norad_cat_id": 30257,
        "meta_element_set_no": 999,
        "meta_rev_at_epoch": 97189,
        "meta_bstar": 0.00024819774,
        "meta_mean_motion_dot": 4.01e-06,
        "meta_mean_motion_ddot": 0,
        "tle_line1": "1 30257U 99025XS  25344.74322689  .00000401  00000+0  24820-3 0  9994",
        "tle_line2": "2 30257  98.7496 343.3636 0059683 104.8014  70.9872 14.09722287971898"
      },
      "geometry": {
        "type": "Point",
        "coordinates": [
          -16.483738688655755,
          9.901270690557753
        ]
      }
    },
    {
      "type": "Feature",
      "properties": {
        "norad_id": 30259,
        "name": "FENGYUN 1C DEB",
        "group": "fengyun-1c-debris",
        "lat": 20.88832867945612,
        "lon": -165.18292532193288,
        "alt_km": 781.8878733999754,
        "timestamp": "2025-12-12T11:38:31.686983+00:00",
        "meta_object_name": "FENGYUN 1C DEB",
        "meta_object_id": "1999-025XU",
        "meta_epoch": "2025-12-12T02:23:56.395392",
        "meta_mean_motion": 14.5150049,
        "meta_eccentricity": 0.0242026,
        "meta_inclination": 98.7618,
        "meta_ra_of_asc_node": 197.7896,
        "meta_arg_of_pericenter": 270.2482,
        "meta_mean_anomaly": 257.1223,
        "meta_ephemeris_type": 0,
        "meta_classification_type": "U",
        "meta_norad_cat_id": 30259,
        "meta_element_set_no": 999,
        "meta_rev_at_epoch": 99465,
        "meta_bstar": 0.00071274,
        "meta_mean_motion_dot": 4.112e-05,
        "meta_mean_motion_ddot": 0,
        "tle_line1": "1 30259U 99025XU  25346.09995828  .00004112  00000+0  71274-3 0  9995",
        "tle_line2": "2 30259  98.7618 197.7896 0242026 270.2482 257.1223 14.51500490994652"
      },
      "geometry": {
        "type": "Point",
        "coordinates": [
          -165.18292532193288,
          20.88832867945612
        ]
      }
    },
    {
      "type": "Feature",
      "properties": {
        "norad_id": 30263,
        "name": "FENGYUN 1C DEB",
        "group": "fengyun-1c-debris",
        "lat": -9.069034871962362,
        "lon": -79.76869573032822,
        "alt_km": 996.8257776002083,
        "timestamp": "2025-12-12T11:38:31.686993+00:00",
        "meta_object_name": "FENGYUN 1C DEB",
        "meta_object_id": "1999-025XY",
        "meta_epoch": "2025-12-11T18:21:57.902400",
        "meta_mean_motion": 14.01469427,
        "meta_eccentricity": 0.01447664,
        "meta_inclination": 98.9347,
        "meta_ra_of_asc_node": 100.9653,
        "meta_arg_of_pericenter": 2.9731,
        "meta_mean_anomaly": 156.5437,
        "meta_ephemeris_type": 0,
        "meta_classification_type": "U",
        "meta_norad_cat_id": 30263,
        "meta_element_set_no": 999,
        "meta_rev_at_epoch": 96011,
        "meta_bstar": 0.0014003176,
        "meta_mean_motion_dot": 2.274e-05,
        "meta_mean_motion_ddot": 0,
        "tle_line1": "1 30263U 99025XY  25345.76525350  .00002274  00000+0  14003-2 0  9995",
        "tle_line2": "2 30263  98.9347 100.9653 0144766   2.9731 156.5437 14.01469427960116"
      },
      "geometry": {
        "type": "Point",
        "coordinates": [
          -79.76869573032822,
          -9.069034871962362
        ]
      }
    }
  ]
}